0 COSMOS 411
1 05210U 71041A   13282.12227532  .00000008  00000-0  13053-3 0  8869
2 05210 074.0135 140.9374 0112551 302.8597 234.1259 12.64915136959059
0 COSMOS 411
1 05210U 71041A   13287.02377162  .00000012  00000-0  15401-3 0  8884
2 05210 074.0126 134.2331 0112582 295.3308 234.0051 12.64915257959679
0 COSMOS 411
1 05210U 71041A   13289.06856711 -.00000010  00000-0  36281-4 0  8892
2 05210 074.0125 131.4360 0112587 292.1931 185.3607 12.64915666959939
0 COSMOS 411
1 05210U 71041A   13291.43265288 -.00000027  00000-0 -49927-4 0  8901
2 05210 074.0126 128.2021 0112581 288.5572 150.6756 12.64915742960232
0 COSMOS 411
1 05210U 71041A   13293.81825714 -.00000014  00000-0  18065-4 0  8916
2 05210 074.0127 124.9387 0112593 284.8918 213.9776 12.64915553960535
0 COSMOS 411
1 05210U 71041A   13295.86669318  .00000016  00000-0  17663-3 0  8923
2 05210 074.0128 122.1366 0112598 281.7498 181.9137 12.64915398960797
